CCSDS_OMM_VERS = 2.0
CREATION_DATE  = 
ORIGINATOR     = 

OBJECT_NAME    = ISS (ZARYA)
OBJECT_ID      = 1998-067A
CENTER_NAME    = EARTH
REF_FRAME      = TEME
TIME_SYSTEM    = UTC
MEAN_ELEMENT_THEORY = SGP/SGP4

EPOCH          = 2026-01-20T04:12:08.025696
MEAN_MOTION    = 15.49442598
ECCENTRICITY   = .00077851
INCLINATION    = 51.6334
RA_OF_ASC_NODE = 312.1983
ARG_OF_PERICENTER = 38.3265
MEAN_ANOMALY   = 321.8276

EPHEMERIS_TYPE = 0
CLASSIFICATION_TYPE = U
NORAD_CAT_ID   = 25544
ELEMENT_SET_NO = 999
REV_AT_EPOCH   = 54881
BSTAR          = .38547648E-3
MEAN_MOTION_DOT = .21194E-3
MEAN_MOTION_DDOT = 0

CCSDS_OMM_VERS = 2.0
CREATION_DATE  = 
ORIGINATOR     = 

OBJECT_NAME    = CSS (TIANHE)
OBJECT_ID      = 2021-035A
CENTER_NAME    = EARTH
REF_FRAME      = TEME
TIME_SYSTEM    = UTC
MEAN_ELEMENT_THEORY = SGP/SGP4

EPOCH          = 2026-01-20T07:39:07.625664
MEAN_MOTION    = 15.60744012
ECCENTRICITY   = .00107312
INCLINATION    = 41.4666
RA_OF_ASC_NODE = 142.2108
ARG_OF_PERICENTER = 322.2833
MEAN_ANOMALY   = 37.7252

EPHEMERIS_TYPE = 0
CLASSIFICATION_TYPE = U
NORAD_CAT_ID   = 48274
ELEMENT_SET_NO = 999
REV_AT_EPOCH   = 27005
BSTAR          = .35887715E-3
MEAN_MOTION_DOT = .30571E-3
MEAN_MOTION_DDOT = 0

CCSDS_OMM_VERS = 2.0
CREATION_DATE  = 
ORIGINATOR     = 

OBJECT_NAME    = ISS (NAUKA)
OBJECT_ID      = 2021-066A
CENTER_NAME    = EARTH
REF_FRAME      = TEME
TIME_SYSTEM    = UTC
MEAN_ELEMENT_THEORY = SGP/SGP4

EPOCH          = 2026-01-20T04:12:08.025696
MEAN_MOTION    = 15.49442598
ECCENTRICITY   = .00077851
INCLINATION    = 51.6334
RA_OF_ASC_NODE = 312.1983
ARG_OF_PERICENTER = 38.3265
MEAN_ANOMALY   = 321.8276

EPHEMERIS_TYPE = 0
CLASSIFICATION_TYPE = U
NORAD_CAT_ID   = 49044
ELEMENT_SET_NO = 999
REV_AT_EPOCH   = 23044
BSTAR          = .38547648E-3
MEAN_MOTION_DOT = .21194E-3
MEAN_MOTION_DDOT = 0

CCSDS_OMM_VERS = 2.0
CREATION_DATE  = 
ORIGINATOR     = 

OBJECT_NAME    = FREGAT DEB
OBJECT_ID      = 2011-037PF
CENTER_NAME    = EARTH
REF_FRAME      = TEME
TIME_SYSTEM    = UTC
MEAN_ELEMENT_THEORY = SGP/SGP4

EPOCH          = 2026-01-19T08:47:27.763584
MEAN_MOTION    = 12.36136191
ECCENTRICITY   = .09024504
INCLINATION    = 51.6236
RA_OF_ASC_NODE = 88.0423
ARG_OF_PERICENTER = 306.9739
MEAN_ANOMALY   = 45.1736

EPHEMERIS_TYPE = 0
CLASSIFICATION_TYPE = U
NORAD_CAT_ID   = 49271
ELEMENT_SET_NO = 999
REV_AT_EPOCH   = 20658
BSTAR          = .78859926E-1
MEAN_MOTION_DOT = .41471E-3
MEAN_MOTION_DDOT = 0

CCSDS_OMM_VERS = 2.0
CREATION_DATE  = 
ORIGINATOR     = 

OBJECT_NAME    = CSS (WENTIAN)
OBJECT_ID      = 2022-085A
CENTER_NAME    = EARTH
REF_FRAME      = TEME
TIME_SYSTEM    = UTC
MEAN_ELEMENT_THEORY = SGP/SGP4

EPOCH          = 2026-01-20T07:39:07.625664
MEAN_MOTION    = 15.60744012
ECCENTRICITY   = .00107312
INCLINATION    = 41.4666
RA_OF_ASC_NODE = 142.2108
ARG_OF_PERICENTER = 322.2833
MEAN_ANOMALY   = 37.7252

EPHEMERIS_TYPE = 0
CLASSIFICATION_TYPE = U
NORAD_CAT_ID   = 53239
ELEMENT_SET_NO = 999
REV_AT_EPOCH   = 17384
BSTAR          = .35887715E-3
MEAN_MOTION_DOT = .30571E-3
MEAN_MOTION_DDOT = 0

CCSDS_OMM_VERS = 2.0
CREATION_DATE  = 
ORIGINATOR     = 

OBJECT_NAME    = CSS (MENGTIAN)
OBJECT_ID      = 2022-143A
CENTER_NAME    = EARTH
REF_FRAME      = TEME
TIME_SYSTEM    = UTC
MEAN_ELEMENT_THEORY = SGP/SGP4

EPOCH          = 2026-01-20T07:39:07.625664
MEAN_MOTION    = 15.60744012
ECCENTRICITY   = .00107312
INCLINATION    = 41.4666
RA_OF_ASC_NODE = 142.2108
ARG_OF_PERICENTER = 322.2833
MEAN_ANOMALY   = 37.7252

EPHEMERIS_TYPE = 0
CLASSIFICATION_TYPE = U
NORAD_CAT_ID   = 54216
ELEMENT_SET_NO = 999
REV_AT_EPOCH   = 15864
BSTAR          = .35887715E-3
MEAN_MOTION_DOT = .30571E-3
MEAN_MOTION_DDOT = 0

CCSDS_OMM_VERS = 2.0
CREATION_DATE  = 
ORIGINATOR     = 

OBJECT_NAME    = SHENZHOU-20 (SZ-20)
OBJECT_ID      = 2025-082A
CENTER_NAME    = EARTH
REF_FRAME      = TEME
TIME_SYSTEM    = UTC
MEAN_ELEMENT_THEORY = SGP/SGP4

EPOCH          = 2026-01-20T07:39:07.625664
MEAN_MOTION    = 15.60744012
ECCENTRICITY   = .00107312
INCLINATION    = 41.4666
RA_OF_ASC_NODE = 142.2108
ARG_OF_PERICENTER = 322.2833
MEAN_ANOMALY   = 37.7252

EPHEMERIS_TYPE = 0
CLASSIFICATION_TYPE = U
NORAD_CAT_ID   = 63632
ELEMENT_SET_NO = 999
REV_AT_EPOCH   = 25530
BSTAR          = .35887715E-3
MEAN_MOTION_DOT = .30571E-3
MEAN_MOTION_DDOT = 0

CCSDS_OMM_VERS = 2.0
CREATION_DATE  = 
ORIGINATOR     = 

OBJECT_NAME    = PROGRESS-MS 31
OBJECT_ID      = 2025-146A
CENTER_NAME    = EARTH
REF_FRAME      = TEME
TIME_SYSTEM    = UTC
MEAN_ELEMENT_THEORY = SGP/SGP4

EPOCH          = 2026-01-20T04:12:08.025696
MEAN_MOTION    = 15.49442598
ECCENTRICITY   = .00077851
INCLINATION    = 51.6334
RA_OF_ASC_NODE = 312.1983
ARG_OF_PERICENTER = 38.3265
MEAN_ANOMALY   = 321.8276

EPHEMERIS_TYPE = 0
CLASSIFICATION_TYPE = U
NORAD_CAT_ID   = 64751
ELEMENT_SET_NO = 999
REV_AT_EPOCH   = 675
BSTAR          = .38547648E-3
MEAN_MOTION_DOT = .21194E-3
MEAN_MOTION_DDOT = 0

CCSDS_OMM_VERS = 2.0
CREATION_DATE  = 
ORIGINATOR     = 

OBJECT_NAME    = TIANZHOU-9
OBJECT_ID      = 2025-149A
CENTER_NAME    = EARTH
REF_FRAME      = TEME
TIME_SYSTEM    = UTC
MEAN_ELEMENT_THEORY = SGP/SGP4

EPOCH          = 2026-01-20T07:39:07.625664
MEAN_MOTION    = 15.60744012
ECCENTRICITY   = .00107312
INCLINATION    = 41.4666
RA_OF_ASC_NODE = 142.2108
ARG_OF_PERICENTER = 322.2833
MEAN_ANOMALY   = 37.7252

EPHEMERIS_TYPE = 0
CLASSIFICATION_TYPE = U
NORAD_CAT_ID   = 64786
ELEMENT_SET_NO = 999
REV_AT_EPOCH   = 25530
BSTAR          = .35887715E-3
MEAN_MOTION_DOT = .30571E-3
MEAN_MOTION_DDOT = 0

CCSDS_OMM_VERS = 2.0
CREATION_DATE  = 
ORIGINATOR     = 

OBJECT_NAME    = DRAGON CRS-33
OBJECT_ID      = 2025-186A
CENTER_NAME    = EARTH
REF_FRAME      = TEME
TIME_SYSTEM    = UTC
MEAN_ELEMENT_THEORY = SGP/SGP4

EPOCH          = 2026-01-20T04:12:08.025696
MEAN_MOTION    = 15.49442598
ECCENTRICITY   = .00077851
INCLINATION    = 51.6334
RA_OF_ASC_NODE = 312.1983
ARG_OF_PERICENTER = 38.3265
MEAN_ANOMALY   = 321.8276

EPHEMERIS_TYPE = 0
CLASSIFICATION_TYPE = U
NORAD_CAT_ID   = 65304
ELEMENT_SET_NO = 999
REV_AT_EPOCH   = 11
BSTAR          = .38547648E-3
MEAN_MOTION_DOT = .21194E-3
MEAN_MOTION_DDOT = 0

CCSDS_OMM_VERS = 2.0
CREATION_DATE  = 
ORIGINATOR     = 

OBJECT_NAME    = PROGRESS-MS 32
OBJECT_ID      = 2025-204A
CENTER_NAME    = EARTH
REF_FRAME      = TEME
TIME_SYSTEM    = UTC
MEAN_ELEMENT_THEORY = SGP/SGP4

EPOCH          = 2026-01-20T04:12:08.025696
MEAN_MOTION    = 15.49442598
ECCENTRICITY   = .00077851
INCLINATION    = 51.6334
RA_OF_ASC_NODE = 312.1983
ARG_OF_PERICENTER = 38.3265
MEAN_ANOMALY   = 321.8276

EPHEMERIS_TYPE = 0
CLASSIFICATION_TYPE = U
NORAD_CAT_ID   = 65586
ELEMENT_SET_NO = 999
REV_AT_EPOCH   = 27
BSTAR          = .38547648E-3
MEAN_MOTION_DOT = .21194E-3
MEAN_MOTION_DDOT = 0

CCSDS_OMM_VERS = 2.0
CREATION_DATE  = 
ORIGINATOR     = 

OBJECT_NAME    = CYGNUS NG-23
OBJECT_ID      = 2025-208A
CENTER_NAME    = EARTH
REF_FRAME      = TEME
TIME_SYSTEM    = UTC
MEAN_ELEMENT_THEORY = SGP/SGP4

EPOCH          = 2026-01-20T04:12:08.025696
MEAN_MOTION    = 15.49442598
ECCENTRICITY   = .00077851
INCLINATION    = 51.6334
RA_OF_ASC_NODE = 312.1983
ARG_OF_PERICENTER = 38.3265
MEAN_ANOMALY   = 321.8276

EPHEMERIS_TYPE = 0
CLASSIFICATION_TYPE = U
NORAD_CAT_ID   = 65616
ELEMENT_SET_NO = 999
REV_AT_EPOCH   = 22
BSTAR          = .38547648E-3
MEAN_MOTION_DOT = .21194E-3
MEAN_MOTION_DDOT = 0

