ISS (ZARYA)             
1 25544U 98067A   26020.17509289  .00021194  00000+0  38548-3 0  9998
2 25544  51.6334 312.1983 0007785  38.3265 321.8276 15.49442598548811
CSS (TIANHE)            
1 48274U 21035A   26020.31883826  .00030571  00000+0  35888-3 0  9995
2 48274  41.4666 142.2108 0010731 322.2833  37.7252 15.60744012270057
ISS (NAUKA)             
1 49044U 21066A   26020.17509289  .00021194  00000+0  38548-3 0  9994
2 49044  51.6334 312.1983 0007785  38.3265 321.8276 15.49442598230449
FREGAT DEB              
1 49271U 11037PF  26019.36629356  .00041471  00000+0  78860-1 0  9999
2 49271  51.6236  88.0423 0902450 306.9739  45.1736 12.36136191206580
CSS (WENTIAN)           
1 53239U 22085A   26020.31883826  .00030571  00000+0  35888-3 0  9998
2 53239  41.4666 142.2108 0010731 322.2833  37.7252 15.60744012173843
CSS (MENGTIAN)          
1 54216U 22143A   26020.31883826  .00030571  00000+0  35888-3 0  9999
2 54216  41.4666 142.2108 0010731 322.2833  37.7252 15.60744012158640
SHENZHOU-20 (SZ-20)     
1 63632U 25082A   26020.31883826  .00030571  00000+0  35888-3 0  9996
2 63632  41.4666 142.2108 0010731 322.2833  37.7252 15.60744012255303
PROGRESS-MS 31          
1 64751U 25146A   26020.17509289  .00021194  00000+0  38548-3 0  9999
2 64751  51.6334 312.1983 0007785  38.3265 321.8276 15.49442598  6756
TIANZHOU-9              
1 64786U 25149A   26020.31883826  .00030571  00000+0  35888-3 0  9991
2 64786  41.4666 142.2108 0010731 322.2833  37.7252 15.60744012255304
DRAGON CRS-33           
1 65304U 25186A   26020.17509289  .00021194  00000+0  38548-3 0  9998
2 65304  51.6334 312.1983 0007785  38.3265 321.8276 15.49442598   115
PROGRESS-MS 32          
1 65586U 25204A   26020.17509289  .00021194  00000+0  38548-3 0  9991
2 65586  51.6334 312.1983 0007785  38.3265 321.8276 15.49442598   274
CYGNUS NG-23            
1 65616U 25208A   26020.17509289  .00021194  00000+0  38548-3 0  9999
2 65616  51.6334 312.1983 0007785  38.3265 321.8276 15.49442598   223
